BEIDOU 3 (C01)          
1 36287U 10001A   21348.52662076 -.00000268  00000+0  00000+0 0  9995
2 36287   1.7738  44.8171 0001514  78.6811 289.8908  1.00275399 43660
BEIDOU 5 (C06)          
1 36828U 10036A   21347.09957495 -.00000025  00000+0  00000+0 0  9998
2 36828  54.1819 177.9429 0023722 174.1443 230.0324  1.00252020 41715
BEIDOU 6 (C04)          
1 37210U 10057A   21348.19329476 -.00000101  00000+0  00000+0 0  9996
2 37210   0.8404  46.0570 0006913 160.9870 105.6620  1.00269954 40777
BEIDOU 7 (C07)          
1 37256U 10068A   21347.86479065 -.00000222  00000+0  00000+0 0  9995
2 37256  50.5470 291.8671 0015515 189.6568  18.4356  1.00251682 40286
BEIDOU 8 (C08)          
1 37384U 11013A   21348.47755838 -.00000203  00000+0  00000+0 0  9990
2 37384  60.0277  56.0999 0019250 191.3990 112.0181  1.00258778 39167
BEIDOU 9 (C09)          
1 37763U 11038A   21348.01495815  .00000014  00000+0  00000+0 0  9993
2 37763  54.4669 180.4029 0086184 225.2957 138.2898  1.00273062 38141
BEIDOU 10 (C10)         
1 37948U 11073A   21347.24185492 -.00000171  00000+0  00000+0 0  9993
2 37948  50.6529 291.5023 0079170 219.4808 111.0566  1.00295755 36887
BEIDOU 11 (C05)         
1 38091U 12008A   21348.15128037  .00000068  00000+0  00000+0 0  9999
2 38091   1.9472  71.2134 0004727 272.1990 212.7919  1.00273310 35976
BEIDOU 12 (C11)         
1 38250U 12018A   21347.94134050 -.00000089  00000+0  00000+0 0  9999
2 38250  56.7343 359.6876 0024918 250.7697 142.0878  1.86234300 65639
BEIDOU 13 (C12)         
1 38251U 12018B   21348.45951557 -.00000089  00000+0  00000+0 0  9996
2 38251  56.6533 359.0077 0015764 254.0543 170.5125  1.86234063 65641
BEIDOU 15 (C14)         
1 38775U 12050B   21347.53534784  .00000015  00000+0  00000+0 0  9998
2 38775  55.2975 117.9475 0011486 327.1907  34.7786  1.86231269 63000
BEIDOU 16 (C02)         
1 38953U 12059A   21348.15646622 -.00000163  00000+0  00000+0 0  9994
2 38953   1.5331  84.4668 0010764 276.1293 222.7505  1.00268522 33541
BEIDOU 17 (C31)         
1 40549U 15019A   21347.87197537 -.00000192  00000+0  00000+0 0  9993
2 40549  52.2020 314.9082 0036323 191.6114 346.0835  1.00282133 24579
BEIDOU 18 (C57)         
1 40748U 15037A   21347.73141679 -.00000091  00000+0  00000+0 0  9993
2 40748  55.9127 358.0100 0003101 321.1758 244.9481  1.86233334 43454
BEIDOU 19 (C58)         
1 40749U 15037B   21348.29007544 -.00000091  00000+0  00000+0 0  9998
2 40749  55.9153 357.9817 0006172 295.7209  60.2403  1.86232071 43455
BEIDOU 20 (C18)         
1 40938U 15053A   21347.99903875 -.00000163  00000+0  00000+0 0  9994
2 40938  51.7894 278.0055 0043456 195.5828  63.7730  1.00288282 22840
BEIDOU IGSO-6 (C13)     
1 41434U 16021A   21348.52242060 -.00000185  00000+0  00000+0 0  9998
2 41434  57.8298  54.7592 0045249 214.6761  98.0378  1.00277853 20976
BEIDOU-2 G7 (C03)       
1 41586U 16037A   21348.44882203 -.00000342  00000+0  00000+0 0  9998
2 41586   1.5708  66.0714 0007684   0.5825 288.8235  1.00271341 20283
BEIDOU-3 M1 (C19)       
1 43001U 17069A   21348.10418248  .00000009  00000+0  00000+0 0  9994
2 43001  55.4514 117.9043 0007487 285.7417 253.7102  1.86231589 27944
BEIDOU-3 M2 (C20)       
1 43002U 17069B   21348.03702438  .00000010  00000+0  00000+0 0  9996
2 43002  55.4509 117.9412 0005780 317.0147 220.6371  1.86231291 27932
BEIDOU-3 M3 (C27)       
1 43107U 18003A   21348.14131997 -.00000093  00000+0  00000+0 0  9991
2 43107  55.3594 358.9964 0003345  41.7292  11.8129  1.86232410 26706
BEIDOU-3 M4 (C28)       
1 43108U 18003B   21348.14721447 -.00000093  00000+0  00000+0 0  9997
2 43108  55.3538 358.9864 0004296 249.9765 212.4468  1.86230876 26706
BEIDOU-3 M5 (C21)       
1 43207U 18018A   21347.36722583  .00000017  00000+0  00000+0 0  9993
2 43207  55.4112 118.0486 0003819 355.9417   4.0229  1.86231489 26073
BEIDOU-3 M6 (C22)       
1 43208U 18018B   21347.43394361  .00000017  00000+0  00000+0 0  9991
2 43208  55.4096 118.0514 0005430 300.3452  59.5694  1.86231571 26074
BEIDOU-3 M7 (C29)       
1 43245U 18029A   21348.19218251 -.00000092  00000+0  00000+0 0  9995
2 43245  55.2832 356.7751 0001376 261.9732  95.9842  1.86232542 25238
BEIDOU-3 M8 (C30)       
1 43246U 18029B   21348.14248441 -.00000092  00000+0  10000-3 0  9990
2 43246  55.2794 356.8074 0004043 334.1868  36.8300  1.86232834 25239
BEIDOU IGSO-7 (C16)     
1 43539U 18057A   21348.44925811 -.00000030  00000+0  00000+0 0  9999
2 43539  55.0628 177.3468 0040066 220.6813 320.3143  1.00266654 12656
BEIDOU-3 M9 (C23)       
1 43581U 18062A   21348.19943204  .00000004  00000+0  00000+0 0  9990
2 43581  54.3347 238.4331 0003828 304.2499 315.4243  1.86231868 22970
BEIDOU-3 M10 (C24)      
1 43582U 18062B   21346.81956359 -.00000014  00000+0  00000+0 0  9995
2 43582  54.3351 238.4699 0006559   2.9164 143.2015  1.86232385 22955
BEIDOU-3 M11 (C25)      
1 43602U 18067A   21348.52960148  .00000013  00000+0  00000+0 0  9992
2 43602  54.4136 237.0096 0007755   5.3424 249.0566  1.86231508 22470
BEIDOU-3 M12 (C26)      
1 43603U 18067B   21347.58409550 -.00000001  00000+0  00000+0 0  9991
2 43603  54.4108 237.0092 0004880 356.1420 254.7543  1.86231447 22475
BEIDOU-3 M13 (C32)      
1 43622U 18072A   21348.12057983  .00000008  00000+0  00000+0 0  9994
2 43622  55.3765 117.5855 0004409 275.0227   5.4187  1.86231483 21996
BEIDOU-3 M14 (C33)      
1 43623U 18072B   21347.82763733  .00000011  00000+0  00000+0 0  9992
2 43623  55.3782 117.5875 0002301 320.4819 213.7907  1.86231511 21995
BEIDOU-3 M15 (C34)      
1 43647U 18078A   21348.51202013 -.00000093  00000+0  10000-3 0  9996
2 43647  55.1764 356.9384 0006259 346.7849 181.6239  1.86232704 21517
BEIDOU-3 M16 (C35)      
1 43648U 18078B   21347.96655630 -.00000093  00000+0  00000+0 0  9997
2 43648  55.1730 356.9638 0003900 351.7207  79.1130  1.86232209 21529
BEIDOU-3 G1 (C59)       
1 43683U 18085A   21348.45475288 -.00000264  00000+0  00000+0 0  9998
2 43683   0.8558 199.8523 0004804  45.7216 141.4862  1.00275545 11546
BEIDOU-3 M17 (C36)      
1 43706U 18093A   21347.47664638 -.00000006  00000+0  00000+0 0  9997
2 43706  54.4153 238.3295 0008591 284.2715  75.7000  1.86231980 20850
BEIDOU-3 M18 (C37)      
1 43707U 18093B   21348.26438128  .00000005  00000+0  00000+0 0  9997
2 43707  54.4164 238.2927 0008429 309.8152 309.3391  1.86232192 20870
BEIDOU-3 IGSO-1 (C38)   
1 44204U 19023A   21348.59201082 -.00000242  00000+0  00000+0 0  9991
2 44204  56.2856  54.9650 0023039 192.0395 168.2520  1.00266340  9862
BEIDOU-2 G8             
1 44231U 19027A   21348.52740573 -.00000236  00000+0  00000+0 0  9994
2 44231   0.4427  58.0713 0006376 153.3048 206.3568  1.00267075  9572
BEIDOU-3 IGSO-2 (C39)   
1 44337U 19035A   21348.44563185 -.00000034  00000+0  00000+0 0  9999
2 44337  55.1005 173.3778 0020800 176.7754  11.6241  1.00257008  9199
BEIDOU-3 M23 (C45)      
1 44542U 19061A   21348.33290501  .00000006  00000+0  10000-3 0  9996
2 44542  54.6412 238.4053 0009194 341.3056 276.2812  1.86231535 15135
BEIDOU-3 M24 (C46)      
1 44543U 19061B   21347.92723885  .00000000  00000+0  10000-3 0  9991
2 44543  54.6408 238.3893 0006386 334.1665 282.5066  1.86231829 15124
BEIDOU-3 IGSO-3         
1 44709U 19073A   21347.93283862 -.00000213  00000+0  00000+0 0  9997
2 44709  57.5644 298.3059 0018563 186.9257  52.6052  1.00263119  7947
BEIDOU-3 M21            
1 44793U 19078A   21347.51102470 -.00000093  00000+0  10000-3 0  9995
2 44793  55.0245 357.0184 0005857 355.3227 176.1581  1.86232267 13987
BEIDOU-3 M22            
1 44794U 19078B   21348.03341038 -.00000093  00000+0  00000+0 0  9994
2 44794  54.9997 356.9952 0003934 344.4456  88.5816  1.86232752 13995
BEIDOU-3 M19            
1 44864U 19090A   21348.05628227  .00000009  00000+0  00000+0 0  9992
2 44864  55.3110 117.8087 0014731 262.9383  19.9886  1.86231749 13572
BEIDOU-3 M20            
1 44865U 19090B   21347.62335807  .00000014  00000+0  00000+0 0  9990
2 44865  55.3139 117.8535 0012929 278.7787 163.7874  1.86231693 13542
BEIDOU-3 G2             
1 45344U 20017A   21348.44280396 -.00000130  00000+0  00000+0 0  9997
2 45344   2.2213 343.5579 0001204 207.6159 131.6108  1.00271227  6766
BEIDOU-3 G3             
1 45807U 20040A   21348.37758113 -.00000341  00000+0  00000+0 0  9990
2 45807   1.8660 300.4048 0009205 350.2440  39.0987  1.00271241  5582
